{
    "links": {
        "self": "http://www.neowsapp.com/rest/v1/neo/3430311?api_key=iIulBulltgU6a56xZRHN4H3l9WmuAYTsLGpBGhQ2"
    },
    "id": "3430311",
    "neo_reference_id": "3430311",
    "name": "(2008 TE4)",
    "designation": "2008 TE4",
    "nasa_jpl_url": "http://ssd.jpl.nasa.gov/sbdb.cgi?sstr=3430311",
    "absolute_magnitude_h": 24.1,
    "estimated_diameter": {
        "kilometers": {
            "estimated_diameter_min": 0.040230458,
            "estimated_diameter_max": 0.0899580388
        },
        "meters": {
            "estimated_diameter_min": 40.2304579834,
            "estimated_diameter_max": 89.9580388169
        },
        "miles": {
            "estimated_diameter_min": 0.0249980399,
            "estimated_diameter_max": 0.0558973165
        },
        "feet": {
            "estimated_diameter_min": 131.9896957704,
            "estimated_diameter_max": 295.1379320721
        }
    },
    "is_potentially_hazardous_asteroid": false,
    "close_approach_data": [
        {
            "close_approach_date": "2008-05-21",
            "close_approach_date_full": "2008-May-21 18:44",
            "epoch_date_close_approach": 1211395440000,
            "relative_velocity": {
                "kilometers_per_second": "3.998527861",
                "kilometers_per_hour": "14394.7002995584",
                "miles_per_hour": "8944.306972245"
            },
            "miss_distance": {
                "astronomical": "0.4242277876",
                "lunar": "165.0246093764",
                "kilometers": "63463573.419772412",
                "miles": "39434435.9239548056"
            },
            "orbiting_body": "Earth"
        },
        {
            "close_approach_date": "2008-09-29",
            "close_approach_date_full": "2008-Sep-29 06:03",
            "epoch_date_close_approach": 1222668180000,
            "relative_velocity": {
                "kilometers_per_second": "9.4577933186",
                "kilometers_per_hour": "34048.0559471087",
                "miles_per_hour": "21156.1378744687"
            },
            "miss_distance": {
                "astronomical": "0.0299613394",
                "lunar": "11.6549610266",
                "kilometers": "4482152.556587078",
                "miles": "2785080.4527665564"
            },
            "orbiting_body": "Earth"
        },
        {
            "close_approach_date": "2017-05-26",
            "close_approach_date_full": "2017-May-26 12:37",
            "epoch_date_close_approach": 1495802220000,
            "relative_velocity": {
                "kilometers_per_second": "19.7379241727",
                "kilometers_per_hour": "71056.5270218035",
                "miles_per_hour": "44151.7625819645"
            },
            "miss_distance": {
                "astronomical": "0.4072500512",
                "lunar": "158.4202699168",
                "kilometers": "60923740.216910944",
                "miles": "37856256.7528372672"
            },
            "orbiting_body": "Earth"
        },
        {
            "close_approach_date": "2079-09-18",
            "close_approach_date_full": "2079-Sep-18 15:48",
            "epoch_date_close_approach": 3462277680000,
            "relative_velocity": {
                "kilometers_per_second": "7.8880429096",
                "kilometers_per_hour": "28396.9544747257",
                "miles_per_hour": "17644.7631845872"
            },
            "miss_distance": {
                "astronomical": "0.0418952074",
                "lunar": "16.2972356786",
                "kilometers": "6267433.790248238",
                "miles": "3894402.7714041644"
            },
            "orbiting_body": "Earth"
        }
    ],
    "orbital_data": {
        "orbit_id": "14",
        "orbit_determination_date": "2017-04-06 09:02:39",
        "first_observation_date": "2008-10-07",
        "last_observation_date": "2008-10-27",
        "data_arc_in_days": 20,
        "observations_used": 42,
        "orbit_uncertainty": "7",
        "minimum_orbit_intersection": ".0151311",
        "jupiter_tisserand_invariant": "4.530",
        "epoch_osculation": "2459000.5",
        "eccentricity": ".3677985938169808",
        "semi_major_axis": "1.466065335883978",
        "inclination": "6.32398217778987",
        "ascending_node_longitude": "355.6115146647393",
        "orbital_period": "648.3782154639187",
        "perihelion_distance": ".9268485669020315",
        "perihelion_argument": "325.157166357235",
        "aphelion_distance": "2.005282104865925",
        "perihelion_time": "2459241.782633756626",
        "mean_anomaly": "226.032284736409",
        "mean_motion": ".5552314859042847",
        "equinox": "J2000",
        "orbit_class": {
            "orbit_class_type": "APO",
            "orbit_class_description": "Near-Earth asteroid orbits which cross the Earth’s orbit similar to that of 1862 Apollo",
            "orbit_class_range": "a (semi-major axis) > 1.0 AU; q (perihelion) < 1.017 AU"
        }
    },
    "is_sentry_object": false
}